{
  "type": "FeatureCollection",
  "features": [
    {
      "type": "Feature",
      "properties": {
        "norad_id": 41556,
        "name": "ZIYUAN 3-2 (ZY 3-2)",
        "group": "resource",
        "lat": 38.94319265446787,
        "lon": 50.65751294796137,
        "alt_km": 504.5723445329322,
        "timestamp": "2025-12-08T10:52:02.606728+00:00",
        "meta_object_name": "ZIYUAN 3-2 (ZY 3-2)",
        "meta_object_id": "2016-033A",
        "meta_epoch": "2025-12-07T22:04:00.784128",
        "meta_mean_motion": 15.21396878,
        "meta_eccentricity": 0.00123871,
        "meta_inclination": 97.4046,
        "meta_ra_of_asc_node": 56.1658,
        "meta_arg_of_pericenter": 267.9218,
        "meta_mean_anomaly": 92.06,
        "meta_ephemeris_type": 0,
        "meta_classification_type": "U",
        "meta_norad_cat_id": 41556,
        "meta_element_set_no": 999,
        "meta_rev_at_epoch": 52890,
        "meta_bstar": 0.00040869245,
        "meta_mean_motion_dot": 9.121e-05,
        "meta_mean_motion_ddot": 0,
        "tle_line1": "1 41556U 16033A   25341.91945352  .00009121  00000+0  40869-3 0  9999",
        "tle_line2": "2 41556  97.4046  56.1658 0012387 267.9218  92.0600 15.21396878528901"
      },
      "geometry": {
        "type": "Point",
        "coordinates": [
          50.65751294796137,
          38.94319265446787
        ]
      }
    },
    {
      "type": "Feature",
      "properties": {
        "norad_id": 41599,
        "name": "CARTOSAT-2C",
        "group": "resource",
        "lat": 16.611816033140034,
        "lon": 37.501686931555064,
        "alt_km": 505.1986636323545,
        "timestamp": "2025-12-08T10:52:02.606738+00:00",
        "meta_object_name": "CARTOSAT-2C",
        "meta_object_id": "2016-040A",
        "meta_epoch": "2025-12-07T22:08:52.201824",
        "meta_mean_motion": 15.19222929,
        "meta_eccentricity": 0.00109438,
        "meta_inclination": 97.4767,
        "meta_ra_of_asc_node": 39.2226,
        "meta_arg_of_pericenter": 79.7781,
        "meta_mean_anomaly": 280.4687,
        "meta_ephemeris_type": 0,
        "meta_classification_type": "U",
        "meta_norad_cat_id": 41599,
        "meta_element_set_no": 999,
        "meta_rev_at_epoch": 52467,
        "meta_bstar": 0.00033971671,
        "meta_mean_motion_dot": 7.098e-05,
        "meta_mean_motion_ddot": 0,
        "tle_line1": "1 41599U 16040A   25341.92282641  .00007098  00000+0  33972-3 0  9998",
        "tle_line2": "2 41599  97.4767  39.2226 0010943  79.7781 280.4687 15.19222929524671"
      },
      "geometry": {
        "type": "Point",
        "coordinates": [
          37.501686931555064,
          16.611816033140034
        ]
      }
    },
    {
      "type": "Feature",
      "properties": {
        "norad_id": 41601,
        "name": "SKYSAT-C1",
        "group": "resource",
        "lat": -47.53391462898814,
        "lon": -167.98736106041795,
        "alt_km": 477.17367924825976,
        "timestamp": "2025-12-08T10:52:02.606748+00:00",
        "meta_object_name": "SKYSAT-C1",
        "meta_object_id": "2016-040C",
        "meta_epoch": "2025-12-07T19:46:18.144768",
        "meta_mean_motion": 15.32459821,
        "meta_eccentricity": 0.0002907,
        "meta_inclination": 96.9826,
        "meta_ra_of_asc_node": 19.1149,
        "meta_arg_of_pericenter": 29.1433,
        "meta_mean_anomaly": 330.9972,
        "meta_ephemeris_type": 0,
        "meta_classification_type": "U",
        "meta_norad_cat_id": 41601,
        "meta_element_set_no": 999,
        "meta_rev_at_epoch": 52852,
        "meta_bstar": 0.00045923842,
        "meta_mean_motion_dot": 0.00014334,
        "meta_mean_motion_ddot": 0,
        "tle_line1": "1 41601U 16040C   25341.82382112  .00014334  00000+0  45924-3 0  9996",
        "tle_line2": "2 41601  96.9826  19.1149 0002907  29.1433 330.9972 15.32459821528524"
      },
      "geometry": {
        "type": "Point",
        "coordinates": [
          -167.98736106041795,
          -47.53391462898814
        ]
      }
    },
    {
      "type": "Feature",
      "properties": {
        "norad_id": 41603,
        "name": "LAPAN-A3",
        "group": "resource",
        "lat": 26.812843923621752,
        "lon": -23.468890475254018,
        "alt_km": 464.82563752218266,
        "timestamp": "2025-12-08T10:52:02.606758+00:00",
        "meta_object_name": "LAPAN-A3",
        "meta_object_id": "2016-040E",
        "meta_epoch": "2025-12-07T23:46:23.278944",
        "meta_mean_motion": 15.31493766,
        "meta_eccentricity": 0.00102412,
        "meta_inclination": 97.1427,
        "meta_ra_of_asc_node": 339.7195,
        "meta_arg_of_pericenter": 351.7157,
        "meta_mean_anomaly": 8.3915,
        "meta_ephemeris_type": 0,
        "meta_classification_type": "U",
        "meta_norad_cat_id": 41603,
        "meta_element_set_no": 999,
        "meta_rev_at_epoch": 52553,
        "meta_bstar": 0.00018496201,
        "meta_mean_motion_dot": 5.559e-05,
        "meta_mean_motion_ddot": 0,
        "tle_line1": "1 41603U 16040E   25341.99054721  .00005559  00000+0  18496-3 0  9991",
        "tle_line2": "2 41603  97.1427 339.7195 0010241 351.7157   8.3915 15.31493766525531"
      },
      "geometry": {
        "type": "Point",
        "coordinates": [
          -23.468890475254018,
          26.812843923621752
        ]
      }
    },
    {
      "type": "Feature",
      "properties": {
        "norad_id": 41604,
        "name": "BIROS",
        "group": "resource",
        "lat": 47.41023792490939,
        "lon": 5.961179038710769,
        "alt_km": 304.7431628515833,
        "timestamp": "2025-12-08T10:52:02.606769+00:00",
        "meta_object_name": "BIROS",
        "meta_object_id": "2016-040F",
        "meta_epoch": "2025-12-07T19:32:26.245824",
        "meta_mean_motion": 15.87659919,
        "meta_eccentricity": 0.00031473,
        "meta_inclination": 97.0682,
        "meta_ra_of_asc_node": 13.0567,
        "meta_arg_of_pericenter": 158.7649,
        "meta_mean_anomaly": 201.3755,
        "meta_ephemeris_type": 0,
        "meta_classification_type": "U",
        "meta_norad_cat_id": 41604,
        "meta_element_set_no": 999,
        "meta_rev_at_epoch": 52794,
        "meta_bstar": 0.00076964954,
        "meta_mean_motion_dot": 0.00208473,
        "meta_mean_motion_ddot": 0,
        "tle_line1": "1 41604U 16040F   25341.81419266  .00208473  00000+0  76965-3 0  9997",
        "tle_line2": "2 41604  97.0682  13.0567 0003147 158.7649 201.3755 15.87659919527946"
      },
      "geometry": {
        "type": "Point",
        "coordinates": [
          5.961179038710769,
          47.41023792490939
        ]
      }
    },
    {
      "type": "Feature",
      "properties": {
        "norad_id": 41727,
        "name": "GAOFEN-3",
        "group": "resource",
        "lat": 76.73697650104326,
        "lon": -153.05221105311628,
        "alt_km": 743.049151181689,
        "timestamp": "2025-12-08T10:52:02.606779+00:00",
        "meta_object_name": "GAOFEN-3",
        "meta_object_id": "2016-049A",
        "meta_epoch": "2025-12-07T22:44:55.428864",
        "meta_mean_motion": 14.42211904,
        "meta_eccentricity": 0.00014906,
        "meta_inclination": 98.404,
        "meta_ra_of_asc_node": 347.6073,
        "meta_arg_of_pericenter": 69.7719,
        "meta_mean_anomaly": 290.3631,
        "meta_ephemeris_type": 0,
        "meta_classification_type": "U",
        "meta_norad_cat_id": 41727,
        "meta_element_set_no": 999,
        "meta_rev_at_epoch": 49108,
        "meta_bstar": 5.5627647e-05,
        "meta_mean_motion_dot": 1.4e-06,
        "meta_mean_motion_ddot": 0,
        "tle_line1": "1 41727U 16049A   25341.94786376  .00000140  00000+0  55628-4 0  9990",
        "tle_line2": "2 41727  98.4040 347.6073 0001490  69.7719 290.3631 14.42211904491085"
      },
      "geometry": {
        "type": "Point",
        "coordinates": [
          -153.05221105311628,
          76.73697650104326
        ]
      }
    },
    {
      "type": "Feature",
      "properties": {
        "norad_id": 41771,
        "name": "SKYSAT-C4",
        "group": "resource",
        "lat": 14.607654472568356,
        "lon": 6.030884405697482,
        "alt_km": 441.34175321058046,
        "timestamp": "2025-12-08T10:52:02.606789+00:00",
        "meta_object_name": "SKYSAT-C4",
        "meta_object_id": "2016-058B",
        "meta_epoch": "2025-12-07T19:13:47.557632",
        "meta_mean_motion": 15.42043286,
        "meta_eccentricity": 0.00010794,
        "meta_inclination": 96.9372,
        "meta_ra_of_asc_node": 7.2296,
        "meta_arg_of_pericenter": 131.8153,
        "meta_mean_anomaly": 228.3187,
        "meta_ephemeris_type": 0,
        "meta_classification_type": "U",
        "meta_norad_cat_id": 41771,
        "meta_element_set_no": 999,
        "meta_rev_at_epoch": 51591,
        "meta_bstar": 0.00055146651,
        "meta_mean_motion_dot": 0.000235,
        "meta_mean_motion_ddot": 0,
        "tle_line1": "1 41771U 16058B   25341.80124488  .00023500  00000+0  55147-3 0  9994",
        "tle_line2": "2 41771  96.9372   7.2296 0001079 131.8153 228.3187 15.42043286515910"
      },
      "geometry": {
        "type": "Point",
        "coordinates": [
          6.030884405697482,
          14.607654472568356
        ]
      }
    }
  ]
}